satname,norad_id,inclination_deg,eccentricity,mean_motion_rev_per_day,perigee_km,apogee_km,l1,l2
STARLINK-1168,45072,53.0568,0.0001498,15.06406308,546.1548105763713,548.2296392121489,1 45072U 20006AE  25310.78623411  .00003958  00000+0  28443-3 0  9997,2 45072  53.0568  98.3497 0001498  85.4633 274.6527 15.06406308318219
STARLINK-1172,45074,53.0531,0.0001379,15.06406504,546.2366213694713,548.146627004021,1 45074U 20006AG  25310.79729530  .00001861  00000+0  14376-3 0  9990,2 45074  53.0531  98.3040 0001379  88.7133 271.4014 15.06406504318218
STARLINK-1153,45080,53.0524,0.0001401,15.0640762,546.2179657731467,548.1584418952616,1 45080U 20006AN  25310.77517568  .00001994  00000+0  15266-3 0  9997,2 45080  53.0524  98.4007 0001401  91.0332 269.0817 15.06407620318219
STARLINK-1151,45081,53.0548,0.0001514,15.064486,546.0141347215176,548.1110851634094,1 45081U 20006AP  25310.82676943 -.00011019  00000+0 -72104-3 0  9992,2 45081  53.0548  98.2465 0001514  71.7744 288.3410 15.06448600318226
STARLINK-1190,45083,53.0382,0.0004615,15.94416157,286.8643809694204,293.0190176088636,1 45083U 20006AR  25310.91668980  .00371429  65303-4  97002-3 0  9994,2 45083  53.0382  44.5210 0004615 319.0702 340.4098 15.94416157  5902
STARLINK-1185,45087,53.0552,0.0001294,15.06405206,546.2994643052871,548.0917403827734,1 45087U 20006AV  25310.33839851  .00000619  00000+0  60418-4 0  9991,2 45087  53.0552  80.3605 0001294  85.8685 274.2452 15.06405206318438
STARLINK-1183,45088,53.0542,0.0001336,15.06411995,546.2495735789726,548.1000168906594,1 45088U 20006AW  25310.75858373  .00002137  00000+0  16228-3 0  9994,2 45088  53.0542  78.4767 0001336  90.6831 269.4311 15.06411995318497
STARLINK-1142,45093,53.0341,0.000591,15.63657969,373.10883549078426,381.0935270210284,1 45093U 20006BB  25310.91668980  .00167884  00000+0  17380-2 0  9991,2 45093  53.0341   8.4593 0005910  14.8813 330.2083 15.63657969  5997
STARLINK-1152,45096,53.0502,0.0004914,15.24872849,487.79169416309196,494.5428463999251,1 45096U 20006BE  25310.68949545  .00085866  00000+0  33824-2 0  9997,2 45096  53.0502  60.2191 0004914 203.1126 156.9651 15.24872849318749
STARLINK-1184,45098,53.0546,0.0001349,15.06397107,546.2861938642236,548.154655297375,1 45098U 20006BG  25310.77334081  .00000103  00000+0  25793-4 0  9991,2 45098  53.0546  78.4102 0001349  87.4772 272.6371 15.06397107318497
STARLINK-1193,45100,53.0544,0.0001324,15.06405147,546.2788691090045,548.112697229988,1 45100U 20006BJ  25310.76964572  .00001929  00000+0  14831-3 0  9995,2 45100  53.0544  78.4257 0001324  81.9017 278.2122 15.06405147318494
STARLINK-1143,45179,53.0516,0.0009497,15.41558514,435.03238767251514,447.9856232953325,1 45179U 20012B   25310.74321806  .00072462  00000+0  16900-2 0  9991,2 45179  53.0516 200.7100 0009497  76.8270 283.3794 15.41558514316844
STARLINK-1202,45183,53.0555,0.000197,15.06398598,545.851560357276,548.5801493820945,1 45183U 20012F   25310.83232249  .00001733  00000+0  13522-3 0  9999,2 45183  53.0555 238.1490 0001970  99.7184 260.4028 15.06398598316329
STARLINK-1216,45185,53.0549,0.0001542,15.06407378,546.1210602623969,548.2568307839974,1 45185U 20012H   25310.82494872  .00006011  00000+0  42203-3 0  9994,2 45185  53.0549 238.1795 0001542  99.1983 260.9181 15.06407378316263
STARLINK-1225,45187,53.0558,9.54e-05,15.06420797,546.4871466901805,547.8084910336183,1 45187U 20012K   25310.51164269  .00017323  00000+0  11783-2 0  9992,2 45187  53.0558 239.5859 0000954  99.1833 260.9264 15.06420797316263
STARLINK-1230,45189,53.0546,0.000165,15.0639141,546.0951983201421,548.3805720322498,1 45189U 20012M   25310.64802367 -.00007202  00000+0 -46519-3 0  9999,2 45189  53.0546 238.9772 0001650 100.4340 259.6835 15.06391410313515
STARLINK-1234,45190,53.0512,0.0003515,15.36888945,452.9135979533021,457.71751510054037,1 45190U 20012N   25310.72338326  .00068046  00000+0  18531-2 0  9992,2 45190  53.0512 194.3245 0003515 114.5424 245.5945 15.36888945316821
STARLINK-1269,45197,53.0536,0.0001489,15.06407088,546.1586531586854,548.2210154899467,1 45197U 20012V   25310.52639675  .00011550  00000+0  79287-3 0  9992,2 45197  53.0536 239.5236 0001489  84.0984 276.0174 15.06407088316247
STARLINK-1154,45198,53.052,0.0001581,15.06400091,546.1163814734809,548.3061765993125,1 45198U 20012W   25310.78257226  .00007850  00000+0  54532-3 0  9993,2 45198  53.0520 218.3719 0001581  76.3528 283.7637 15.06400091316531
STARLINK-1199,45201,53.0545,0.0001524,15.06422832,546.0861695746198,548.1969944864231,1 45201U 20012Z   25310.46187632  .00020382  00000+0  13824-2 0  9999,2 45201  53.0545 219.8115 0001524  78.4329 281.6831 15.06422832316549
STARLINK-1209,45206,53.0543,0.0002284,15.30815865,471.81193830611664,474.94170982094784,1 45206U 20012AE  25310.80659492  .00052330  00000+0  17331-2 0  9995,2 45206  53.0543 194.8028 0002284 111.2662 248.8582 15.30815865315970
STARLINK-1210,45207,53.0229,0.0012177,15.57967259,385.2949942549649,401.78673853077726,1 45207U 20012AF  25310.91668980  .00137385  00000+0  17731-2 0  9998,2 45207  53.0229 155.2717 0012177  87.1188 242.9836 15.57967259  5982
STARLINK-1231,45212,53.0504,0.0007012,15.12635227,523.324459473044,533.009860426957,1 45212U 20012AL  25310.45326748  .00024453  00000+0  13947-2 0  9992,2 45212  53.0504 217.9316 0007012  66.6477 293.5252 15.12635227316527
STARLINK-1271,45217,53.0553,0.0002279,15.06403262,545.6232757382177,548.7798450540467,1 45217U 20012AR  25310.77887971  .00004280  00000+0  30600-3 0  9994,2 45217  53.0553 218.3867 0002279 102.8231 257.3013 15.06403262316598
STARLINK-1191,45222,53.0549,0.0001974,15.06393505,545.8643965145075,548.598531984193,1 45222U 20012AW  25310.72174774  .00002894  00000+0  21314-3 0  9996,2 45222  53.0549 198.6448 0001974 106.3902 253.7304 15.06393505316860
STARLINK-1212,45223,53.0537,0.0001489,15.06395976,546.1927047095078,548.255077182831,1 45223U 20012AX  25310.74025439  .00002816  00000+0  20786-3 0  9998,2 45223  53.0537 199.2160 0001489 100.6819 259.4337 15.06395976316864
STARLINK-1215,45225,53.0523,0.000141,15.06407262,546.2128300351642,548.165772052057,1 45225U 20012AZ  25310.69595147  .00009997  00000+0  68892-3 0  9999,2 45225  53.0523 198.7583 0001410  84.7572 275.3578 15.06407262316817
STARLINK-1221,45227,53.0662,0.0002711,15.36924204,453.3585233987933,457.06356470827905,1 45227U 20012BB  25310.49782041  .00019932  00000+0  55314-3 0  9995,2 45227  53.0662 131.2004 0002711  12.3588 347.7480 15.36924204317733
STARLINK-1222,45228,53.0543,0.0001621,15.0640353,546.0781417703229,548.3233362653127,1 45228U 20012BC  25310.66277720  .00008579  00000+0  59405-3 0  9998,2 45228  53.0543 198.9083 0001621  82.4385 277.6788 15.06403530316744
STARLINK-1226,45229,53.0541,0.0001335,15.06403258,546.2770399560632,548.1261053549624,1 45229U 20012BD  25310.42687911  .00010445  00000+0  71902-3 0  9991,2 45229  53.0541 199.9665 0001335  84.7737 275.3404 15.06403258316712
STARLINK-1227,45230,53.0541,0.0001539,15.0639558,546.1592914069015,548.2909178627078,1 45230U 20012BE  25310.68858384  .00004578  00000+0  32610-3 0  9998,2 45230  53.0541 198.7908 0001539  92.3085 267.8080 15.06395580316879
STARLINK-1246,45235,53.0554,0.0001855,15.06404593,545.9128315443158,548.4821306367994,1 45235U 20012BK  25310.76966809  .00005996  00000+0  42105-3 0  9999,2 45235  53.0554 238.4278 0001855  94.1136 266.0065 15.06404593316338
STARLINK-1270,45237,53.0536,0.000183,15.06403781,545.9326330766153,548.4673064075423,1 45237U 20012BM  25310.70700769  .00004957  00000+0  35140-3 0  9993,2 45237  53.0536 198.7097 0001830  92.3132 267.8066 15.06403781316862
STARLINK-1279,45360,53.053,0.0003876,15.35041772,458.1456525802396,463.4471937698863,1 45360U 20019A   25310.83489422  .00089992  00000+0  25889-2 0  9991,2 45360  53.0530 324.3098 0003876  30.4979 329.6247 15.35041772311677
STARLINK-1301,45361,53.0521,0.0003568,15.37633484,450.6721012635153,455.546878758787,1 45361U 20019B   25310.91668980  .00160790  00000+0  42088-2 0  9995,2 45361  53.0521 333.5399 0003568  21.2256 332.5397 15.37633484  5698
STARLINK-1306,45362,53.0458,0.0006759,15.71402966,350.3356292102235,359.43733035018977,1 45362U 20019C   25310.91668980  .00181937  00000+0  13720-2 0  9993,2 45362  53.0458 322.1568 0006759 335.7583 179.9688 15.71402966  5807
STARLINK-1262,45366,53.0551,0.0001458,15.06415126,546.1554902540729,548.174908375393,1 45366U 20019G   25310.41949603  .00016369  00000+0  11148-2 0  9994,2 45366  53.0551 359.9968 0001458  89.7622 270.3534 15.06415126311152
STARLINK-1273,45367,53.0547,0.0001335,15.06418849,546.2292627500565,548.0783153907387,1 45367U 20019H   25310.57430304  .00010923  00000+0  75064-3 0  9993,2 45367  53.0547 359.3031 0001335  82.8642 277.2498 15.06418849311175
STARLINK-1276,45368,53.0549,0.0001452,15.06412274,546.1683850029685,548.1794952999871,1 45368U 20019J   25310.41212840  .00016129  00000+0  10989-2 0  9998,2 45368  53.0549   0.0332 0001452  83.3440 276.7715 15.06412274311154
STARLINK-1277,45369,53.054,0.0001649,15.06393927,546.0881778246594,548.3721639176129,1 45369U 20019K   25310.53751097  .00015416  00000+0  10518-2 0  9990,2 45369  53.0540   0.0979 0001649  86.9408 273.1770 15.06393927311160
STARLINK-1281,45370,53.0551,0.0001443,15.06407453,546.1893911601137,548.1880401616545,1 45370U 20019L   25310.53376192  .00014560  00000+0  99412-3 0  9991,2 45370  53.0551 359.4893 0001443  88.9730 271.1425 15.06407453311178
STARLINK-1300,45374,53.0556,0.000158,15.06415505,546.0698401900363,548.2582353179678,1 45374U 20019Q   25310.42318560  .00015991  00000+0  10895-2 0  9994,2 45374  53.0556 359.9824 0001580  82.9099 277.2070 15.06415505311158
STARLINK-1302,45375,53.0552,0.000137,15.06410084,546.2318835847072,548.1294206213843,1 45375U 20019R   25310.43792508  .00010975  00000+0  75431-3 0  9999,2 45375  53.0552 359.9181 0001370  82.8920 277.2224 15.06410084311158
